CCSDS_OMM_VERS = 2.0
CREATION_DATE  = 
ORIGINATOR     = 

OBJECT_NAME    = DELTA 2 R/B(1)
OBJECT_ID      = 1990-008B
CENTER_NAME    = EARTH
REF_FRAME      = TEME
TIME_SYSTEM    = UTC
MEAN_ELEMENT_THEORY = SGP/SGP4

EPOCH          = 2026-01-01T18:26:48.278976
MEAN_MOTION    = 15.47184819
ECCENTRICITY   = .0106493
INCLINATION    = 35.6055
RA_OF_ASC_NODE = 251.0272
ARG_OF_PERICENTER = 0.0391
MEAN_ANOMALY   = 0.0337

EPHEMERIS_TYPE = 0
CLASSIFICATION_TYPE = U
NORAD_CAT_ID   = 20453
ELEMENT_SET_NO = 999
REV_AT_EPOCH   = 91573
BSTAR          = .10684E-2
MEAN_MOTION_DOT = .70703E-3
MEAN_MOTION_DDOT = 0

CCSDS_OMM_VERS = 2.0
CREATION_DATE  = 
ORIGINATOR     = 

OBJECT_NAME    = COSMOS 2058
OBJECT_ID      = 1990-010A
CENTER_NAME    = EARTH
REF_FRAME      = TEME
TIME_SYSTEM    = UTC
MEAN_ELEMENT_THEORY = SGP/SGP4

EPOCH          = 2026-01-01T18:18:44.652384
MEAN_MOTION    = 15.10696117
ECCENTRICITY   = .0009982
INCLINATION    = 82.4720
RA_OF_ASC_NODE = 113.3370
ARG_OF_PERICENTER = 200.5542
MEAN_ANOMALY   = 159.5288

EPHEMERIS_TYPE = 0
CLASSIFICATION_TYPE = U
NORAD_CAT_ID   = 20465
ELEMENT_SET_NO = 999
REV_AT_EPOCH   = 93213
BSTAR          = .48549E-3
MEAN_MOTION_DOT = .8076E-4
MEAN_MOTION_DDOT = 0

CCSDS_OMM_VERS = 2.0
CREATION_DATE  = 
ORIGINATOR     = 

OBJECT_NAME    = SL-14 R/B
OBJECT_ID      = 1990-010B
CENTER_NAME    = EARTH
REF_FRAME      = TEME
TIME_SYSTEM    = UTC
MEAN_ELEMENT_THEORY = SGP/SGP4

EPOCH          = 2026-01-01T08:58:01.511040
MEAN_MOTION    = 14.83493865
ECCENTRICITY   = .0020335
INCLINATION    = 82.5030
RA_OF_ASC_NODE = 330.6068
ARG_OF_PERICENTER = 157.4957
MEAN_ANOMALY   = 202.7154

EPHEMERIS_TYPE = 0
CLASSIFICATION_TYPE = U
NORAD_CAT_ID   = 20466
ELEMENT_SET_NO = 999
REV_AT_EPOCH   = 91850
BSTAR          = .10568E-3
MEAN_MOTION_DOT = .896E-5
MEAN_MOTION_DDOT = 0

CCSDS_OMM_VERS = 2.0
CREATION_DATE  = 
ORIGINATOR     = 

OBJECT_NAME    = SL-14 R/B
OBJECT_ID      = 1990-018B
CENTER_NAME    = EARTH
REF_FRAME      = TEME
TIME_SYSTEM    = UTC
MEAN_ELEMENT_THEORY = SGP/SGP4

EPOCH          = 2026-01-01T17:33:40.097376
MEAN_MOTION    = 14.82072090
ECCENTRICITY   = .0015353
INCLINATION    = 82.5220
RA_OF_ASC_NODE = 285.6806
ARG_OF_PERICENTER = 316.5678
MEAN_ANOMALY   = 43.4326

EPHEMERIS_TYPE = 0
CLASSIFICATION_TYPE = U
NORAD_CAT_ID   = 20511
ELEMENT_SET_NO = 999
REV_AT_EPOCH   = 91266
BSTAR          = .11775E-3
MEAN_MOTION_DOT = .96E-5
MEAN_MOTION_DDOT = 0

CCSDS_OMM_VERS = 2.0
CREATION_DATE  = 
ORIGINATOR     = 

OBJECT_NAME    = HST
OBJECT_ID      = 1990-037B
CENTER_NAME    = EARTH
REF_FRAME      = TEME
TIME_SYSTEM    = UTC
MEAN_ELEMENT_THEORY = SGP/SGP4

EPOCH          = 2026-01-01T17:02:52.341792
MEAN_MOTION    = 15.28338358
ECCENTRICITY   = .0002604
INCLINATION    = 28.4657
RA_OF_ASC_NODE = 136.5262
ARG_OF_PERICENTER = 92.0873
MEAN_ANOMALY   = 268.0020

EPHEMERIS_TYPE = 0
CLASSIFICATION_TYPE = U
NORAD_CAT_ID   = 20580
ELEMENT_SET_NO = 999
REV_AT_EPOCH   = 76305
BSTAR          = .40139E-3
MEAN_MOTION_DOT = .11638E-3
MEAN_MOTION_DDOT = 0

CCSDS_OMM_VERS = 2.0
CREATION_DATE  = 
ORIGINATOR     = 

OBJECT_NAME    = SL-16 R/B
OBJECT_ID      = 1990-046B
CENTER_NAME    = EARTH
REF_FRAME      = TEME
TIME_SYSTEM    = UTC
MEAN_ELEMENT_THEORY = SGP/SGP4

EPOCH          = 2026-01-01T14:39:07.382304
MEAN_MOTION    = 14.14999341
ECCENTRICITY   = .001264
INCLINATION    = 70.9993
RA_OF_ASC_NODE = 78.7921
ARG_OF_PERICENTER = 39.6919
MEAN_ANOMALY   = 320.5126

EPHEMERIS_TYPE = 0
CLASSIFICATION_TYPE = U
NORAD_CAT_ID   = 20625
ELEMENT_SET_NO = 999
REV_AT_EPOCH   = 83890
BSTAR          = .16559E-3
MEAN_MOTION_DOT = .273E-5
MEAN_MOTION_DDOT = 0

CCSDS_OMM_VERS = 2.0
CREATION_DATE  = 
ORIGINATOR     = 

OBJECT_NAME    = COSMOS 2084
OBJECT_ID      = 1990-055A
CENTER_NAME    = EARTH
REF_FRAME      = TEME
TIME_SYSTEM    = UTC
MEAN_ELEMENT_THEORY = SGP/SGP4

EPOCH          = 2026-01-01T18:22:36.549120
MEAN_MOTION    = 15.05156968
ECCENTRICITY   = .0028465
INCLINATION    = 62.7890
RA_OF_ASC_NODE = 203.7516
ARG_OF_PERICENTER = 177.5563
MEAN_ANOMALY   = 182.5682

EPHEMERIS_TYPE = 0
CLASSIFICATION_TYPE = U
NORAD_CAT_ID   = 20663
ELEMENT_SET_NO = 999
REV_AT_EPOCH   = 92624
BSTAR          = .40405E-3
MEAN_MOTION_DOT = .5637E-4
MEAN_MOTION_DDOT = 0

CCSDS_OMM_VERS = 2.0
CREATION_DATE  = 
ORIGINATOR     = 

OBJECT_NAME    = SL-6 R/B(2)
OBJECT_ID      = 1990-055D
CENTER_NAME    = EARTH
REF_FRAME      = TEME
TIME_SYSTEM    = UTC
MEAN_ELEMENT_THEORY = SGP/SGP4

EPOCH          = 2026-01-01T17:24:14.050368
MEAN_MOTION    = 15.03193129
ECCENTRICITY   = .0015166
INCLINATION    = 62.7837
RA_OF_ASC_NODE = 121.5029
ARG_OF_PERICENTER = 322.0080
MEAN_ANOMALY   = 37.9949

EPHEMERIS_TYPE = 0
CLASSIFICATION_TYPE = U
NORAD_CAT_ID   = 20666
ELEMENT_SET_NO = 999
REV_AT_EPOCH   = 92812
BSTAR          = .37458E-3
MEAN_MOTION_DOT = .4908E-4
MEAN_MOTION_DDOT = 0

CCSDS_OMM_VERS = 2.0
CREATION_DATE  = 
ORIGINATOR     = 

OBJECT_NAME    = SL-8 R/B
OBJECT_ID      = 1990-078B
CENTER_NAME    = EARTH
REF_FRAME      = TEME
TIME_SYSTEM    = UTC
MEAN_ELEMENT_THEORY = SGP/SGP4

EPOCH          = 2026-01-01T19:02:29.156928
MEAN_MOTION    = 14.86664494
ECCENTRICITY   = .0369371
INCLINATION    = 82.9060
RA_OF_ASC_NODE = 311.3504
ARG_OF_PERICENTER = 238.3523
MEAN_ANOMALY   = 118.1176

EPHEMERIS_TYPE = 0
CLASSIFICATION_TYPE = U
NORAD_CAT_ID   = 20775
ELEMENT_SET_NO = 999
REV_AT_EPOCH   = 79935
BSTAR          = .66388E-3
MEAN_MOTION_DOT = .21625E-3
MEAN_MOTION_DDOT = 0

CCSDS_OMM_VERS = 2.0
CREATION_DATE  = 
ORIGINATOR     = 

OBJECT_NAME    = SL-8 R/B
OBJECT_ID      = 1991-006B
CENTER_NAME    = EARTH
REF_FRAME      = TEME
TIME_SYSTEM    = UTC
MEAN_ELEMENT_THEORY = SGP/SGP4

EPOCH          = 2026-01-01T17:28:04.073952
MEAN_MOTION    = 13.77492898
ECCENTRICITY   = .0021591
INCLINATION    = 82.9409
RA_OF_ASC_NODE = 219.8449
ARG_OF_PERICENTER = 220.6714
MEAN_ANOMALY   = 209.9002

EPHEMERIS_TYPE = 0
CLASSIFICATION_TYPE = U
NORAD_CAT_ID   = 21088
ELEMENT_SET_NO = 999
REV_AT_EPOCH   = 75485
BSTAR          = .49284E-4
MEAN_MOTION_DOT = .64E-6
MEAN_MOTION_DDOT = 0

CCSDS_OMM_VERS = 2.0
CREATION_DATE  = 
ORIGINATOR     = 

OBJECT_NAME    = OKEAN-3
OBJECT_ID      = 1991-039A
CENTER_NAME    = EARTH
REF_FRAME      = TEME
TIME_SYSTEM    = UTC
MEAN_ELEMENT_THEORY = SGP/SGP4

EPOCH          = 2026-01-01T13:44:33.743328
MEAN_MOTION    = 15.04258395
ECCENTRICITY   = .0013865
INCLINATION    = 82.5158
RA_OF_ASC_NODE = 41.8475
ARG_OF_PERICENTER = 192.3002
MEAN_ANOMALY   = 167.7888

EPHEMERIS_TYPE = 0
CLASSIFICATION_TYPE = U
NORAD_CAT_ID   = 21397
ELEMENT_SET_NO = 999
REV_AT_EPOCH   = 85494
BSTAR          = .42619E-3
MEAN_MOTION_DOT = .5966E-4
MEAN_MOTION_DDOT = 0

CCSDS_OMM_VERS = 2.0
CREATION_DATE  = 
ORIGINATOR     = 

OBJECT_NAME    = COSMOS 2151
OBJECT_ID      = 1991-042A
CENTER_NAME    = EARTH
REF_FRAME      = TEME
TIME_SYSTEM    = UTC
MEAN_ELEMENT_THEORY = SGP/SGP4

EPOCH          = 2026-01-01T18:32:50.463456
MEAN_MOTION    = 14.99785339
ECCENTRICITY   = .0011225
INCLINATION    = 82.4969
RA_OF_ASC_NODE = 148.1971
ARG_OF_PERICENTER = 287.2727
MEAN_ANOMALY   = 72.7268

EPHEMERIS_TYPE = 0
CLASSIFICATION_TYPE = U
NORAD_CAT_ID   = 21422
ELEMENT_SET_NO = 999
REV_AT_EPOCH   = 85316
BSTAR          = .31205E-3
MEAN_MOTION_DOT = .3888E-4
MEAN_MOTION_DDOT = 0

