DELTA 2 R/B(1)          
1 20453U 90008B   26001.76861434  .00070703  00000+0  10684-2 0  9996
2 20453  35.6055 251.0272 0106493   0.0391   0.0337 15.47184819915731
COSMOS 2058             
1 20465U 90010A   26001.76301681  .00008076  00000+0  48549-3 0  9991
2 20465  82.4720 113.3370 0009982 200.5542 159.5288 15.10696117932139
SL-14 R/B               
1 20466U 90010B   26001.37362860  .00000896  00000+0  10568-3 0  9997
2 20466  82.5030 330.6068 0020335 157.4957 202.7154 14.83493865918500
SL-14 R/B               
1 20511U 90018B   26001.73171409  .00000960  00000+0  11775-3 0  9996
2 20511  82.5220 285.6806 0015353 316.5678  43.4326 14.82072090912667
HST                     
1 20580U 90037B   26001.71032803  .00011638  00000+0  40139-3 0  9995
2 20580  28.4657 136.5262 0002604  92.0873 268.0020 15.28338358763050
SL-16 R/B               
1 20625U 90046B   26001.61050211  .00000273  00000+0  16559-3 0  9999
2 20625  70.9993  78.7921 0012640  39.6919 320.5126 14.14999341838900
COSMOS 2084             
1 20663U 90055A   26001.76570080  .00005637  00000+0  40405-3 0  9994
2 20663  62.7890 203.7516 0028465 177.5563 182.5682 15.05156968926245
SL-6 R/B(2)             
1 20666U 90055D   26001.72516262  .00004908  00000+0  37458-3 0  9999
2 20666  62.7837 121.5029 0015166 322.0080  37.9949 15.03193129928126
SL-8 R/B                
1 20775U 90078B   26001.79339302  .00021625  00000+0  66388-3 0  9999
2 20775  82.9060 311.3504 0369371 238.3523 118.1176 14.86664494799350
SL-8 R/B                
1 21088U 91006B   26001.72782493  .00000064  00000+0  49284-4 0  9996
2 21088  82.9409 219.8449 0021591 220.6714 209.9002 13.77492898754859
OKEAN-3                 
1 21397U 91039A   26001.57261277  .00005966  00000+0  42619-3 0  9990
2 21397  82.5158  41.8475 0013865 192.3002 167.7888 15.04258395854949
COSMOS 2151             
1 21422U 91042A   26001.77280629  .00003888  00000+0  31205-3 0  9997
2 21422  82.4969 148.1971 0011225 287.2727  72.7268 14.99785339853161
